[{"OBJECT_NAME":"STARLINK-6263","OBJECT_ID":"2023-065AY","EPOCH":"2026-03-09T22:00:01.999584","MEAN_MOTION":15.14287006,"ECCENTRICITY":0.00010273,"INCLINATION":43.0011,"RA_OF_ASC_NODE":221.3286,"ARG_OF_PERICENTER":289.7985,"MEAN_ANOMALY":235.0267,"EPHEMERIS_TYPE":0,"CLASSIFICATION_TYPE":"U","NORAD_CAT_ID":56549,"ELEMENT_SET_NO":999,"REV_AT_EPOCH":572,"BSTAR":0.0067881777,"MEAN_MOTION_DOT":0.00128532,"MEAN_MOTION_DDOT":0},{"OBJECT_NAME":"CONNECTA IOT-16","OBJECT_ID":"2026-004AD","EPOCH":"2026-03-09T22:28:21.027072","MEAN_MOTION":15.16909547,"ECCENTRICITY":0.00029488,"INCLINATION":97.4598,"RA_OF_ASC_NODE":69.3831,"ARG_OF_PERICENTER":354.609,"MEAN_ANOMALY":5.5111,"EPHEMERIS_TYPE":0,"CLASSIFICATION_TYPE":"U","NORAD_CAT_ID":67390,"ELEMENT_SET_NO":999,"REV_AT_EPOCH":869,"BSTAR":0.00024828447,"MEAN_MOTION_DOT":4.827e-5,"MEAN_MOTION_DDOT":0}]
